ONEWEB-0198             
1 48216U 21031G   23277.58810472  .00000176  00000+0  44100-3 0  9999
2 48216  87.8964 126.1284 0001569  63.0417 297.0873 13.14505407118872
ONEWEB-0189             
1 48217U 21031H   23277.60079592 -.00000086  00000+0 -26577-3 0  9993
2 48217  87.8961 126.1040 0001431  61.5876 298.5398 13.14501194118619
ONEWEB-0196             
1 48218U 21031J   23277.57964470  .00000230  00000+0  58507-3 0  9995
2 48218  87.8964 126.1037 0001679  75.3307 284.8008 13.14501004118611
ONEWEB-0183             
1 48219U 21031K   23277.55216065  .00000010  00000+0 -85863-5 0  9998
2 48219  87.8964 126.1289 0001527  82.7926 277.3378 13.14503877118709
ONEWEB-0185             
1 48220U 21031L   23277.58075770  .00000209  00000+0  52793-3 0  9992
2 48220  87.8961 126.0979 0001408  82.8580 277.2710 13.14501867118636
ONEWEB-0187             
1 48221U 21031M   23277.55533816  .00000060  00000+0  12771-3 0  9997
2 48221  87.8962 126.1319 0001533  79.5570 280.5732 13.14504490118645
ONEWEB-0192             
1 48222U 21031N   23277.60502335 -.00000083  00000+0 -25949-3 0  9994
2 48222  87.9006 126.0854 0001672  74.2208 285.9106 13.14501308118563
ONEWEB-0219             
1 48223U 21031P   23277.58598803  .00000161  00000+0  39863-3 0  9992
2 48223  87.8962 126.1007 0001431  79.1576 280.9715 13.14504226118765
